{"type": "FeatureCollection", "features": [ {"type": "Feature", "properties": {"norad_id": 36551, "name": "COSMOS 2251 DEB", "group": "cosmos-2251-debris", "lat": -44.93923832089422, "lon": -26.096165354663242, "alt_km": 530.1302369668292, "timestamp": "2025-12-24T09:46:31.402460+00:00", "meta": {"OBJECT_NAME": "COSMOS 2251 DEB", "OBJECT_ID": "1993-036BDM", "EPOCH": "2025-12-23T08:25:21.362880", "MEAN_MOTION": 15.02881194, "ECCENTRICITY": 0.00509794, "INCLINATION": 73.8872, "RA_OF_ASC_NODE": 352.8451, "ARG_OF_PERICENTER": 300.1612, "MEAN_ANOMALY": 59.4529, "EPHEMERIS_TYPE": 0, "CLASSIFICATION_TYPE": "U", "NORAD_CAT_ID": 36551, "ELEMENT_SET_NO": 999, "REV_AT_EPOCH": 67091, "BSTAR": 0.0013038883, "MEAN_MOTION_DOT": 0.00017997, "MEAN_MOTION_DDOT": 0}, "tle": {"line1": "1 36551U 93036BDM 25357.35094170  .00017997  00000+0  13039-2 0  9992", "line2": "2 36551  73.8872 352.8451 0050979 300.1612  59.4529 15.02881194670914"}}, "geometry": {"type": "Point", "coordinates": [-26.096165354663242, -44.93923832089422]}}, {"type": "Feature", "properties": {"norad_id": 36557, "name": "COSMOS 2251 DEB", "group": "cosmos-2251-debris", "lat": -1.3878218537385079, "lon": 102.84684529909663, "alt_km": 639.3645793469159, "timestamp": "2025-12-24T09:46:31.402471+00:00", "meta": {"OBJECT_NAME": "COSMOS 2251 DEB", "OBJECT_ID": "1993-036BDT", "EPOCH": "2025-12-22T00:57:08.479008", "MEAN_MOTION": 14.78653832, "ECCENTRICITY": 0.00212002, "INCLINATION": 73.9802, "RA_OF_ASC_NODE": 107.9136, "ARG_OF_PERICENTER": 260.6795, "MEAN_ANOMALY": 99.1983, "EPHEMERIS_TYPE": 0, "CLASSIFICATION_TYPE": "U", "NORAD_CAT_ID": 36557, "ELEMENT_SET_NO": 999, "REV_AT_EPOCH": 34034, "BSTAR": 0.0038224462, "MEAN_MOTION_DOT": 0.00028203, "MEAN_MOTION_DDOT": 0}, "tle": {"line1": "1 36557U 93036BDT 25356.03968147  .00028203  00000+0  38224-2 0  9991", "line2": "2 36557  73.9802 107.9136 0021200 260.6795  99.1983 14.78653832340344"}}, "geometry": {"type": "Point", "coordinates": [102.84684529909663, -1.3878218537385079]}}, {"type": "Feature", "properties": {"norad_id": 36558, "name": "COSMOS 2251 DEB", "group": "cosmos-2251-debris", "lat": 44.65893845139187, "lon": 148.87677811339637, "alt_km": 712.6368067552339, "timestamp": "2025-12-24T09:46:31.402481+00:00", "meta": {"OBJECT_NAME": "COSMOS 2251 DEB", "OBJECT_ID": "1993-036BDU", "EPOCH": "2025-12-23T15:24:48.606336", "MEAN_MOTION": 14.55435357, "ECCENTRICITY": 0.00125723, "INCLINATION": 74.043, "RA_OF_ASC_NODE": 133.9013, "ARG_OF_PERICENTER": 222.7204, "MEAN_ANOMALY": 137.2983, "EPHEMERIS_TYPE": 0, "CLASSIFICATION_TYPE": "U", "NORAD_CAT_ID": 36558, "ELEMENT_SET_NO": 999, "REV_AT_EPOCH": 85427, "BSTAR": 0.00094757292, "MEAN_MOTION_DOT": 4.097e-05, "MEAN_MOTION_DDOT": 0}, "tle": {"line1": "1 36558U 93036BDU 25357.64222924  .00004097  00000+0  94757-3 0  9995", "line2": "2 36558  74.0430 133.9013 0012572 222.7204 137.2983 14.55435357854274"}}, "geometry": {"type": "Point", "coordinates": [148.87677811339637, 44.65893845139187]}}, {"type": "Feature", "properties": {"norad_id": 36559, "name": "COSMOS 2251 DEB", "group": "cosmos-2251-debris", "lat": -51.76494451038278, "lon": -168.96410852980355, "alt_km": 1070.2093053944982, "timestamp": "2025-12-24T09:46:31.402491+00:00", "meta": {"OBJECT_NAME": "COSMOS 2251 DEB", "OBJECT_ID": "1993-036BDV", "EPOCH": "2025-12-20T23:46:37.184160", "MEAN_MOTION": 13.9527233, "ECCENTRICITY": 0.0261353, "INCLINATION": 74.1312, "RA_OF_ASC_NODE": 355.7104, "ARG_OF_PERICENTER": 25.9739, "MEAN_ANOMALY": 335.4239, "EPHEMERIS_TYPE": 0, "CLASSIFICATION_TYPE": "U", "NORAD_CAT_ID": 36559, "ELEMENT_SET_NO": 999, "REV_AT_EPOCH": 81209, "BSTAR": 0.0030098689, "MEAN_MOTION_DOT": 5.397e-05, "MEAN_MOTION_DDOT": 0}, "tle": {"line1": "1 36559U 93036BDV 25354.99070815  .00005397  00000+0  30099-2 0  9993", "line2": "2 36559  74.1312 355.7104 0261353  25.9739 335.4239 13.95272330812092"}}, "geometry": {"type": "Point", "coordinates": [-168.96410852980355, -51.76494451038278]}}, {"type": "Feature", "properties": {"norad_id": 36614, "name": "COSMOS 2251 DEB", "group": "cosmos-2251-debris", "lat": -73.9746617554645, "lon": 66.3494883376938, "alt_km": 691.5389468787025, "timestamp": "2025-12-24T09:46:31.402502+00:00", "meta": {"OBJECT_NAME": "COSMOS 2251 DEB", "OBJECT_ID": "1993-036BEC", "EPOCH": "2025-12-23T17:44:28.734144", "MEAN_MOTION": 14.60399882, "ECCENTRICITY": 0.00156704, "INCLINATION": 74.0228, "RA_OF_ASC_NODE": 153.5681, "ARG_OF_PERICENTER": 223.5071, "MEAN_ANOMALY": 136.486, "EPHEMERIS_TYPE": 0, "CLASSIFICATION_TYPE": "U", "NORAD_CAT_ID": 36614, "ELEMENT_SET_NO": 999, "REV_AT_EPOCH": 65773, "BSTAR": 0.001582538, "MEAN_MOTION_DOT": 7.653e-05, "MEAN_MOTION_DDOT": 0}, "tle": {"line1": "1 36614U 93036BEC 25357.73922146  .00007653  00000+0  15825-2 0  9990", "line2": "2 36614  74.0228 153.5681 0015670 223.5071 136.4860 14.60399882657739"}}, "geometry": {"type": "Point", "coordinates": [66.3494883376938, -73.9746617554645]}}, {"type": "Feature", "properties": {"norad_id": 36622, "name": "COSMOS 2251 DEB", "group": "cosmos-2251-debris", "lat": -69.03409145485092, "lon": 74.17206905354396, "alt_km": 605.1691952724232, "timestamp": "2025-12-24T09:46:31.402512+00:00", "meta": {"OBJECT_NAME": "COSMOS 2251 DEB", "OBJECT_ID": "1993-036BEL", "EPOCH": "2025-12-24T01:59:12.141888", "MEAN_MOTION": 14.76299213, "ECCENTRICITY": 0.0068902, "INCLINATION": 74.0149, "RA_OF_ASC_NODE": 123.2338, "ARG_OF_PERICENTER": 256.4441, "MEAN_ANOMALY": 102.9052, "EPHEMERIS_TYPE": 0, "CLASSIFICATION_TYPE": "U", "NORAD_CAT_ID": 36622, "ELEMENT_SET_NO": 999, "REV_AT_EPOCH": 66917, "BSTAR": 0.00077655, "MEAN_MOTION_DOT": 5.567e-05, "MEAN_MOTION_DDOT": 0}, "tle": {"line1": "1 36622U 93036BEL 25358.08277942  .00005567  00000+0  77655-3 0  9997", "line2": "2 36622  74.0149 123.2338 0068902 256.4441 102.9052 14.76299213669171"}}, "geometry": {"type": "Point", "coordinates": [74.17206905354396, -69.03409145485092]}}, {"type": "Feature", "properties": {"norad_id": 36632, "name": "COSMOS 2251 DEB", "group": "cosmos-2251-debris", "lat": 38.91424460699605, "lon": 77.26113061329293, "alt_km": 757.3007698512602, "timestamp": "2025-12-24T09:46:31.402523+00:00", "meta": {"OBJECT_NAME": "COSMOS 2251 DEB", "OBJECT_ID": "1993-036BEW", "EPOCH": "2025-12-23T01:31:35.391648", "MEAN_MOTION": 14.43225962, "ECCENTRICITY": 0.00327185, "INCLINATION": 74.0013, "RA_OF_ASC_NODE": 273.1539, "ARG_OF_PERICENTER": 18.5865, "MEAN_ANOMALY": 341.6478, "EPHEMERIS_TYPE": 0, "CLASSIFICATION_TYPE": "U", "NORAD_CAT_ID": 36632, "ELEMENT_SET_NO": 999, "REV_AT_EPOCH": 65364, "BSTAR": 0.0008144408, "MEAN_MOTION_DOT": 2.732e-05, "MEAN_MOTION_DDOT": 0}, "tle": {"line1": "1 36632U 93036BEW 25357.06360407  .00002732  00000+0  81444-3 0  9996", "line2": "2 36632  74.0013 273.1539 0032718  18.5865 341.6478 14.43225962653646"}}, "geometry": {"type": "Point", "coordinates": [77.26113061329293, 38.91424460699605]}}, {"type": "Feature", "properties": {"norad_id": 37084, "name": "COSMOS 2251 DEB", "group": "cosmos-2251-debris", "lat": 45.89124779585418, "lon": 154.86627342600627, "alt_km": 624.4524078722761, "timestamp": "2025-12-24T09:46:31.402533+00:00", "meta": {"OBJECT_NAME": "COSMOS 2251 DEB", "OBJECT_ID": "1993-036BFE", "EPOCH": "2025-12-23T17:33:44.746560", "MEAN_MOTION": 15.01160045, "ECCENTRICITY": 0.00968597, "INCLINATION": 74.0271, "RA_OF_ASC_NODE": 139.0556, "ARG_OF_PERICENTER": 216.9972, "MEAN_ANOMALY": 142.4512, "EPHEMERIS_TYPE": 0, "CLASSIFICATION_TYPE": "U", "NORAD_CAT_ID": 37084, "ELEMENT_SET_NO": 999, "REV_AT_EPOCH": 66432, "BSTAR": 0.00071089306, "MEAN_MOTION_DOT": 0.00010048, "MEAN_MOTION_DDOT": 0}, "tle": {"line1": "1 37084U 93036BFE 25357.73176790  .00010048  00000+0  71089-3 0  9995", "line2": "2 37084  74.0271 139.0556 0096859 216.9972 142.4512 15.01160045664320"}}, "geometry": {"type": "Point", "coordinates": [154.86627342600627, 45.89124779585418]}}, {"type": "Feature", "properties": {"norad_id": 37085, "name": "COSMOS 2251 DEB", "group": "cosmos-2251-debris", "lat": 46.09745170111691, "lon": -151.99193234198165, "alt_km": 416.6400481640421, "timestamp": "2025-12-24T09:46:31.402543+00:00", "meta": {"OBJECT_NAME": "COSMOS 2251 DEB", "OBJECT_ID": "1993-036BFF", "EPOCH": "2025-12-13T09:00:31.802112", "MEAN_MOTION": 15.41681601, "ECCENTRICITY": 0.00213151, "INCLINATION": 73.9479, "RA_OF_ASC_NODE": 214.6598, "ARG_OF_PERICENTER": 52.8263, "MEAN_ANOMALY": 307.4887, "EPHEMERIS_TYPE": 0, "CLASSIFICATION_TYPE": "U", "NORAD_CAT_ID": 37085, "ELEMENT_SET_NO": 999, "REV_AT_EPOCH": 67147, "BSTAR": 0.0024657072, "MEAN_MOTION_DOT": 0.00106285, "MEAN_MOTION_DDOT": 0}, "tle": {"line1": "1 37085U 93036BFF 25347.37536808  .00106285  00000+0  24657-2 0  9992", "line2": "2 37085  73.9479 214.6598 0021315  52.8263 307.4887 15.41681601671472"}}, "geometry": {"type": "Point", "coordinates": [-151.99193234198165, 46.09745170111691]}}, {"type": "Feature", "properties": {"norad_id": 37089, "name": "COSMOS 2251 DEB", "group": "cosmos-2251-debris", "lat": 22.72361291174726, "lon": 130.60772137090575, "alt_km": 805.5825488312157, "timestamp": "2025-12-24T09:46:31.402553+00:00", "meta": {"OBJECT_NAME": "COSMOS 2251 DEB", "OBJECT_ID": "1993-036BFK", "EPOCH": "2025-12-21T15:34:23.731392", "MEAN_MOTION": 14.53121083, "ECCENTRICITY": 0.0134841, "INCLINATION": 74.0377, "RA_OF_ASC_NODE": 128.9285, "ARG_OF_PERICENTER": 227.2834, "MEAN_ANOMALY": 131.6914, "EPHEMERIS_TYPE": 0, "CLASSIFICATION_TYPE": "U", "NORAD_CAT_ID": 37089, "ELEMENT_SET_NO": 999, "REV_AT_EPOCH": 66239, "BSTAR": 0.0022471011, "MEAN_MOTION_DOT": 0.00010467, "MEAN_MOTION_DDOT": 0}, "tle": {"line1": "1 37089U 93036BFK 25355.64888578  .00010467  00000+0  22471-2 0  9997", "line2": "2 37089  74.0377 128.9285 0134841 227.2834 131.6914 14.53121083662390"}}, "geometry": {"type": "Point", "coordinates": [130.60772137090575, 22.72361291174726]}}]}